{
  "type": "FeatureCollection",
  "features": [
    {
      "type": "Feature",
      "properties": {
        "norad_id": 32230,
        "name": "FENGYUN 1C DEB",
        "group": "fengyun-1c-debris",
        "lat": -75.1762177723212,
        "lon": -70.02255709021803,
        "alt_km": 745.9471145531998,
        "timestamp": "2025-12-21T22:41:41.746016+00:00",
        "meta_object_name": "FENGYUN 1C DEB",
        "meta_object_id": "1999-025CWC",
        "meta_epoch": "2025-12-20T09:22:08.439744",
        "meta_mean_motion": 14.56275202,
        "meta_eccentricity": 0.00497589,
        "meta_inclination": 98.8696,
        "meta_ra_of_asc_node": 144.4839,
        "meta_arg_of_pericenter": 64.7578,
        "meta_mean_anomaly": 324.6156,
        "meta_ephemeris_type": 0,
        "meta_classification_type": "U",
        "meta_norad_cat_id": 32230,
        "meta_element_set_no": 999,
        "meta_rev_at_epoch": 60781,
        "meta_bstar": 0.001606742,
        "meta_mean_motion_dot": 7.185e-05,
        "meta_mean_motion_ddot": 0,
        "tle_line1": "1 32230U 99025CWC 25354.39037546  .00007185  00000+0  16067-2 0  9993",
        "tle_line2": "2 32230  98.8696 144.4839 0049758  64.7578 324.6156 14.56275202607814"
      },
      "geometry": {
        "type": "Point",
        "coordinates": [
          -70.02255709021803,
          -75.1762177723212
        ]
      }
    },
    {
      "type": "Feature",
      "properties": {
        "norad_id": 32234,
        "name": "FENGYUN 1C DEB",
        "group": "fengyun-1c-debris",
        "lat": 46.5752719030013,
        "lon": 34.218548500382504,
        "alt_km": 1010.0968429150707,
        "timestamp": "2025-12-21T22:41:41.746028+00:00",
        "meta_object_name": "FENGYUN 1C DEB",
        "meta_object_id": "1999-025CWG",
        "meta_epoch": "2025-12-14T12:38:46.497984",
        "meta_mean_motion": 13.9413283,
        "meta_eccentricity": 0.01374559,
        "meta_inclination": 98.529,
        "meta_ra_of_asc_node": 198.2432,
        "meta_arg_of_pericenter": 331.2039,
        "meta_mean_anomaly": 28.1585,
        "meta_ephemeris_type": 0,
        "meta_classification_type": "U",
        "meta_norad_cat_id": 32234,
        "meta_element_set_no": 999,
        "meta_rev_at_epoch": 93234,
        "meta_bstar": 0.0014985343,
        "meta_mean_motion_dot": 2.108e-05,
        "meta_mean_motion_ddot": 0,
        "tle_line1": "1 32234U 99025CWG 25348.52692706  .00002108  00000+0  14985-2 0  9997",
        "tle_line2": "2 32234  98.5290 198.2432 0137455 331.2039  28.1585 13.94132830932348"
      },
      "geometry": {
        "type": "Point",
        "coordinates": [
          34.218548500382504,
          46.5752719030013
        ]
      }
    },
    {
      "type": "Feature",
      "properties": {
        "norad_id": 32241,
        "name": "FENGYUN 1C DEB",
        "group": "fengyun-1c-debris",
        "lat": -54.277069605490745,
        "lon": -167.06837664216667,
        "alt_km": 719.4286324288114,
        "timestamp": "2025-12-21T22:41:41.746038+00:00",
        "meta_object_name": "FENGYUN 1C DEB",
        "meta_object_id": "1999-025CWP",
        "meta_epoch": "2025-12-21T08:09:15.142176",
        "meta_mean_motion": 14.28802263,
        "meta_eccentricity": 0.01466162,
        "meta_inclination": 99.0761,
        "meta_ra_of_asc_node": 25.1434,
        "meta_arg_of_pericenter": 198.7919,
        "meta_mean_anomaly": 160.7816,
        "meta_ephemeris_type": 0,
        "meta_classification_type": "U",
        "meta_norad_cat_id": 32241,
        "meta_element_set_no": 999,
        "meta_rev_at_epoch": 93946,
        "meta_bstar": 0.00098449017,
        "meta_mean_motion_dot": 2.736e-05,
        "meta_mean_motion_ddot": 0,
        "tle_line1": "1 32241U 99025CWP 25355.33975859  .00002736  00000+0  98449-3 0  9990",
        "tle_line2": "2 32241  99.0761  25.1434 0146616 198.7919 160.7816 14.28802263939469"
      },
      "geometry": {
        "type": "Point",
        "coordinates": [
          -167.06837664216667,
          -54.277069605490745
        ]
      }
    },
    {
      "type": "Feature",
      "properties": {
        "norad_id": 32243,
        "name": "FENGYUN 1C DEB",
        "group": "fengyun-1c-debris",
        "lat": 77.07387672790163,
        "lon": -120.92926744084784,
        "alt_km": 675.305147336142,
        "timestamp": "2025-12-21T22:41:41.746048+00:00",
        "meta_object_name": "FENGYUN 1C DEB",
        "meta_object_id": "1999-025CWR",
        "meta_epoch": "2025-12-20T06:54:58.008096",
        "meta_mean_motion": 14.04660142,
        "meta_eccentricity": 0.02690971,
        "meta_inclination": 98.2673,
        "meta_ra_of_asc_node": 18.2504,
        "meta_arg_of_pericenter": 102.1335,
        "meta_mean_anomaly": 261.0117,
        "meta_ephemeris_type": 0,
        "meta_classification_type": "U",
        "meta_norad_cat_id": 32243,
        "meta_element_set_no": 999,
        "meta_rev_at_epoch": 93694,
        "meta_bstar": 0.0015029766,
        "meta_mean_motion_dot": 3.288e-05,
        "meta_mean_motion_ddot": 0,
        "tle_line1": "1 32243U 99025CWR 25354.28817139  .00003288  00000+0  15030-2 0  9998",
        "tle_line2": "2 32243  98.2673  18.2504 0269097 102.1335 261.0117 14.04660142936946"
      },
      "geometry": {
        "type": "Point",
        "coordinates": [
          -120.92926744084784,
          77.07387672790163
        ]
      }
    },
    {
      "type": "Feature",
      "properties": {
        "norad_id": 32245,
        "name": "FENGYUN 1C DEB",
        "group": "fengyun-1c-debris",
        "lat": -63.20250980654626,
        "lon": -4.889664412451049,
        "alt_km": 619.9662345603056,
        "timestamp": "2025-12-21T22:41:41.746059+00:00",
        "meta_object_name": "FENGYUN 1C DEB",
        "meta_object_id": "1999-025CWT",
        "meta_epoch": "2025-12-16T06:38:31.473888",
        "meta_mean_motion": 14.77030772,
        "meta_eccentricity": 0.0097149,
        "meta_inclination": 98.6547,
        "meta_ra_of_asc_node": 186.5841,
        "meta_arg_of_pericenter": 330.7675,
        "meta_mean_anomaly": 28.8116,
        "meta_ephemeris_type": 0,
        "meta_classification_type": "U",
        "meta_norad_cat_id": 32245,
        "meta_element_set_no": 999,
        "meta_rev_at_epoch": 66158,
        "meta_bstar": 0.00082943136,
        "meta_mean_motion_dot": 6.263e-05,
        "meta_mean_motion_ddot": 0,
        "tle_line1": "1 32245U 99025CWT 25350.27675317  .00006263  00000+0  82943-3 0  9999",
        "tle_line2": "2 32245  98.6547 186.5841 0097149 330.7675  28.8116 14.77030772661581"
      },
      "geometry": {
        "type": "Point",
        "coordinates": [
          -4.889664412451049,
          -63.20250980654626
        ]
      }
    },
    {
      "type": "Feature",
      "properties": {
        "norad_id": 32304,
        "name": "FENGYUN 1C DEB",
        "group": "fengyun-1c-debris",
        "lat": 80.55849063392407,
        "lon": -143.79434519362752,
        "alt_km": 727.272302671413,
        "timestamp": "2025-12-21T22:41:41.746069+00:00",
        "meta_object_name": "FENGYUN 1C DEB",
        "meta_object_id": "1999-025CWV",
        "meta_epoch": "2025-12-03T02:19:20.087328",
        "meta_mean_motion": 14.50391603,
        "meta_eccentricity": 0.00495576,
        "meta_inclination": 99.3949,
        "meta_ra_of_asc_node": 290.5539,
        "meta_arg_of_pericenter": 255.7789,
        "meta_mean_anomaly": 103.7894,
        "meta_ephemeris_type": 0,
        "meta_classification_type": "U",
        "meta_norad_cat_id": 32304,
        "meta_element_set_no": 999,
        "meta_rev_at_epoch": 56133,
        "meta_bstar": 0.0019806873,
        "meta_mean_motion_dot": 7.809e-05,
        "meta_mean_motion_ddot": 0,
        "tle_line1": "1 32304U 99025CWV 25337.09676027  .00007809  00000+0  19807-2 0  9994",
        "tle_line2": "2 32304  99.3949 290.5539 0049557 255.7789 103.7894 14.50391603561335"
      },
      "geometry": {
        "type": "Point",
        "coordinates": [
          -143.79434519362752,
          80.55849063392407
        ]
      }
    },
    {
      "type": "Feature",
      "properties": {
        "norad_id": 32308,
        "name": "FENGYUN 1C DEB",
        "group": "fengyun-1c-debris",
        "lat": -60.020107987843055,
        "lon": 61.24112495061792,
        "alt_km": 887.5794033105412,
        "timestamp": "2025-12-21T22:41:41.746081+00:00",
        "meta_object_name": "FENGYUN 1C DEB",
        "meta_object_id": "1999-025CWZ",
        "meta_epoch": "2025-12-18T02:43:23.295648",
        "meta_mean_motion": 14.05525608,
        "meta_eccentricity": 0.01083328,
        "meta_inclination": 97.7739,
        "meta_ra_of_asc_node": 44.2538,
        "meta_arg_of_pericenter": 44.9982,
        "meta_mean_anomaly": 315.9904,
        "meta_ephemeris_type": 0,
        "meta_classification_type": "U",
        "meta_norad_cat_id": 32308,
        "meta_element_set_no": 999,
        "meta_rev_at_epoch": 65487,
        "meta_bstar": 0.0012185561,
        "meta_mean_motion_dot": 2.054e-05,
        "meta_mean_motion_ddot": 0,
        "tle_line1": "1 32308U 99025CWZ 25352.11346407  .00002054  00000+0  12186-2 0  9994",
        "tle_line2": "2 32308  97.7739  44.2538 0108332  44.9982 315.9904 14.05525608654876"
      },
      "geometry": {
        "type": "Point",
        "coordinates": [
          61.24112495061792,
          -60.020107987843055
        ]
      }
    }
  ]
}